[{"OBJECT_NAME":"HORS 2","OBJECT_ID":"2023-091AG","EPOCH":"2026-03-09T22:11:34.810944","MEAN_MOTION":15.2928008,"ECCENTRICITY":0.00098173,"INCLINATION":97.5195,"RA_OF_ASC_NODE":134.7443,"ARG_OF_PERICENTER":79.3164,"MEAN_ANOMALY":280.9181,"EPHEMERIS_TYPE":0,"CLASSIFICATION_TYPE":"U","NORAD_CAT_ID":57196,"ELEMENT_SET_NO":999,"REV_AT_EPOCH":14934,"BSTAR":0.00059338338,"MEAN_MOTION_DOT":0.00016821,"MEAN_MOTION_DDOT":0},{"OBJECT_NAME":"STARLINK-34881","OBJECT_ID":"2025-189AA","EPOCH":"2026-03-09T16:11:46.262400","MEAN_MOTION":15.30198799,"ECCENTRICITY":0.0001094,"INCLINATION":53.157,"RA_OF_ASC_NODE":206.8741,"ARG_OF_PERICENTER":63.0229,"MEAN_ANOMALY":297.0884,"EPHEMERIS_TYPE":0,"CLASSIFICATION_TYPE":"U","NORAD_CAT_ID":65347,"ELEMENT_SET_NO":999,"REV_AT_EPOCH":3111,"BSTAR":0.00093408853,"MEAN_MOTION_DOT":0.00027407,"MEAN_MOTION_DDOT":0}]
